[{"OBJECT_NAME":"STARLINK-35494","OBJECT_ID":"2025-225T","EPOCH":"2026-03-09T13:23:12.970464","MEAN_MOTION":15.30182411,"ECCENTRICITY":0.0001451,"INCLINATION":53.1577,"RA_OF_ASC_NODE":166.5941,"ARG_OF_PERICENTER":86.354,"MEAN_ANOMALY":273.7626,"EPHEMERIS_TYPE":0,"CLASSIFICATION_TYPE":"U","NORAD_CAT_ID":65927,"ELEMENT_SET_NO":999,"REV_AT_EPOCH":2438,"BSTAR":0.00055837,"MEAN_MOTION_DOT":0.00016205,"MEAN_MOTION_DDOT":0},{"OBJECT_NAME":"CERISE","OBJECT_ID":"1995-033B","EPOCH":"2026-03-09T23:11:27.589056","MEAN_MOTION":15.32047731,"ECCENTRICITY":0.00057118,"INCLINATION":98.325,"RA_OF_ASC_NODE":273.5192,"ARG_OF_PERICENTER":211.8754,"MEAN_ANOMALY":148.214,"EPHEMERIS_TYPE":0,"CLASSIFICATION_TYPE":"U","NORAD_CAT_ID":23606,"ELEMENT_SET_NO":999,"REV_AT_EPOCH":66468,"BSTAR":0.00062940675,"MEAN_MOTION_DOT":0.00019422,"MEAN_MOTION_DDOT":0}]
